[{"OBJECT_NAME":"HAWK-2C","OBJECT_ID":"2021-006CT","EPOCH":"2026-03-09T16:13:22.454976","MEAN_MOTION":15.33286436,"ECCENTRICITY":0.0006943,"INCLINATION":97.2417,"RA_OF_ASC_NODE":114.9961,"ARG_OF_PERICENTER":184.0877,"MEAN_ANOMALY":176.031,"EPHEMERIS_TYPE":0,"CLASSIFICATION_TYPE":"U","NORAD_CAT_ID":47502,"ELEMENT_SET_NO":999,"REV_AT_EPOCH":28424,"BSTAR":0.00025492914,"MEAN_MOTION_DOT":8.129e-5,"MEAN_MOTION_DDOT":0},{"OBJECT_NAME":"OBJECT R","OBJECT_ID":"2018-111R","EPOCH":"2026-03-09T23:55:12.472032","MEAN_MOTION":15.36792156,"ECCENTRICITY":0.00179753,"INCLINATION":97.014,"RA_OF_ASC_NODE":269.2496,"ARG_OF_PERICENTER":268.8687,"MEAN_ANOMALY":91.0499,"EPHEMERIS_TYPE":0,"CLASSIFICATION_TYPE":"U","NORAD_CAT_ID":43891,"ELEMENT_SET_NO":999,"REV_AT_EPOCH":40119,"BSTAR":0.00024292589,"MEAN_MOTION_DOT":8.703e-5,"MEAN_MOTION_DDOT":0}]
